NORAD_CAT_ID,OBJECT_NAME,OBJECT_TYPE,EPOCH,MEAN_MOTION,ECCENTRICITY,INCLINATION,RA_OF_ASC_NODE,ARG_OF_PERICENTER,MEAN_ANOMALY,BSTAR,MEAN_MOTION_DOT,MEAN_MOTION_DDOT,TLE_LINE0,TLE_LINE1,TLE_LINE2,SEMIMAJOR_AXIS,PERIOD,APOGEE,PERIGEE,DECAYED
55292.0,STARLINK-5325,PAYLOAD,2024-04-28 21:30:27,14.98327336,0.0003125,69.9986,298.4163,268.6435,91.4366,-0.0001064,-1.362e-05,0.0,0 STARLINK-5325,1 55292U 23010Z   24119.89614602 -.00001362  00000-0 -10640-3 0  9990,2 55292  69.9986 298.4163 0003125 268.6435  91.4366 14.98327336 71441,6950.201,96.107,574.238,569.894,0.0
55292.0,STARLINK-5325,PAYLOAD,2024-04-29 13:31:47,14.983306,0.0003122,69.9982,296.7317,271.5871,88.493,1.539e-05,9.1e-07,0.0,0 STARLINK-5325,1 55292U 23010Z   24120.56373972  .00000091  00000-0  15390-4 0  9992,2 55292  69.9982 296.7317 0003122 271.5871  88.4930 14.98330600 71231,6950.191,96.107,574.226,569.886,0.0
55292.0,STARLINK-5325,PAYLOAD,2024-04-29 21:32:27,14.98333006,0.0003116,69.9983,295.8897,270.9415,89.1387,2.3664e-05,1.89e-06,0.0,0 STARLINK-5325,1 55292U 23010Z   24120.89753762  .00000189  00000-0  23664-4 0  9998,2 55292  69.9983 295.8897 0003116 270.9415  89.1387 14.98333006 71591,6950.184,96.107,574.214,569.883,0.0
55292.0,STARLINK-5325,PAYLOAD,2024-04-30 13:33:47,14.98328004,0.0003157,69.9983,294.2063,270.983,89.0967,0.00010804,1.196e-05,0.0,0 STARLINK-5325,1 55292U 23010Z   24121.56513769  .00001196  00000-0  10804-3 0  9994,2 55292  69.9983 294.2063 0003157 270.9830  89.0967 14.98328004 71387,6950.199,96.107,574.258,569.87,0.0
55292.0,STARLINK-5325,PAYLOAD,2024-04-30 15:09:55,14.98328266,0.0003159,69.9984,294.0379,270.964,89.1157,0.00010862,1.203e-05,0.0,0 STARLINK-5325,1 55292U 23010Z   24121.63189756  .00001203  00000-0  10862-3 0  9990,2 55292  69.9984 294.0379 0003159 270.9640  89.1157 14.98328266 71705,6950.198,96.107,574.259,569.868,0.0
55292.0,STARLINK-5325,PAYLOAD,2024-04-30 21:34:28,14.98331434,0.000321,69.9984,293.3648,271.4086,88.6706,9.4767e-05,1.038e-05,0.0,0 STARLINK-5325,1 55292U 23010Z   24121.89893593  .00001038  00000-0  94767-4 0  9992,2 55292  69.9984 293.3648 0003210 271.4086  88.6706 14.98331434 71743,6950.188,96.107,574.284,569.822,0.0
55292.0,STARLINK-5325,PAYLOAD,2024-05-01 10:23:32,14.9833055,0.0003163,69.9986,292.0181,271.5097,88.5699,-5.5263e-07,-1e-06,0.0,0 STARLINK-5325,1 55292U 23010Z   24122.43301889 -.00000100  00000-0 -55263-6 0  9996,2 55292  69.9986 292.0181 0003163 271.5097  88.5699 14.98330550 71820,6950.191,96.107,574.255,569.858,0.0
55292.0,STARLINK-5325,PAYLOAD,2024-05-02 04:01:01,14.9833311,0.000317,69.9986,290.1664,271.3823,88.6973,2.9348e-06,-5.8e-07,0.0,0 STARLINK-5325,1 55292U 23010Z   24123.16737572 -.00000058  00000-0  29348-5 0  9994,2 55292  69.9986 290.1664 0003170 271.3823  88.6973 14.98333110 71627,6950.183,96.107,574.251,569.845,0.0
55292.0,STARLINK-5325,PAYLOAD,2024-05-02 15:13:57,14.98330271,0.0003132,69.9986,288.9882,271.4284,88.6516,-4.5086e-05,-6.31e-06,0.0,0 STARLINK-5325,1 55292U 23010Z   24123.63469834 -.00000631  00000-0 -45086-4 0  9993,2 55292  69.9986 288.9882 0003132 271.4284  88.6516 14.98330271 72005,6950.192,96.107,574.234,569.88,0.0
55292.0,STARLINK-5325,PAYLOAD,2024-05-03 04:03:02,14.98338686,0.0003172,69.9986,287.6418,269.0018,91.0777,-0.00012392,-1.572e-05,0.0,0 STARLINK-5325,1 55292U 23010Z   24124.16877331 -.00001572  00000-0 -12392-3 0  9995,2 55292  69.9986 287.6418 0003172 269.0018  91.0777 14.98338686 71776,6950.166,96.106,574.236,569.826,0.0
55292.0,STARLINK-5325,PAYLOAD,2024-05-03 13:39:50,14.98329852,0.0002974,69.9984,286.6318,267.0816,93.0003,6.9664e-06,-1e-07,0.0,0 STARLINK-5325,1 55292U 23010Z   24124.56933580 -.00000010  00000-0  69664-5 0  9999,2 55292  69.9984 286.6318 0002974 267.0816  93.0003 14.98329852 72146,6950.193,96.107,574.125,569.991,0.0
55292.0,STARLINK-5325,PAYLOAD,2024-05-03 20:04:22,14.98329328,0.0003004,69.9985,285.9584,266.8487,93.2328,-2.4152e-06,-1.22e-06,0.0,0 STARLINK-5325,1 55292U 23010Z   24124.83637632 -.00000122  00000-0 -24152-5 0  9996,2 55292  69.9985 285.9584 0003004 266.8487  93.2328 14.98329328 71879,6950.195,96.107,574.148,569.972,0.0
55292.0,STARLINK-5325,PAYLOAD,2024-05-04 20:06:23,14.98329751,0.0003064,69.9986,283.4333,267.1851,92.8957,-3.2737e-06,-1.32e-06,0.0,0 STARLINK-5325,1 55292U 23010Z   24125.83777627 -.00000132  00000-0 -32737-5 0  9995,2 55292  69.9986 283.4333 0003064 267.1851  92.8957 14.98329751 72021,6950.194,96.107,574.188,569.929,0.0
55292.0,STARLINK-5325,PAYLOAD,2024-05-05 13:43:52,14.98327575,0.0003188,69.9983,281.5806,268.3861,91.6933,2.4946e-05,2.05e-06,0.0,0 STARLINK-5325,1 55292U 23010Z   24126.57213698  .00000205  00000-0  24946-4 0  9991,2 55292  69.9983 281.5806 0003188 268.3861  91.6933 14.98327575 72442,6950.2,96.107,574.281,569.85,0.0
55292.0,STARLINK-5325,PAYLOAD,2024-05-05 20:08:24,14.98331651,0.0003203,69.9985,280.9072,268.331,91.7482,2.3896e-05,1.92e-06,0.0,0 STARLINK-5325,1 55292U 23010Z   24126.83917442  .00000192  00000-0  23896-4 0  9996,2 55292  69.9985 280.9072 0003203 268.3310  91.7482 14.98331651 72179,6950.188,96.107,574.279,569.827,0.0
55292.0,STARLINK-5325,PAYLOAD,2024-05-06 12:09:43,14.98358468,0.0002461,69.999,279.2241,274.8938,85.194,0.00032953,3.844e-05,0.0,0 STARLINK-5325,1 55292U 23010Z   24127.50674960  .00003844  00000-0  32953-3 0  9996,2 55292  69.9990 279.2241 0002461 274.8938  85.1940 14.98358468 72279,6950.105,96.105,573.68,570.259,0.0
55292.0,STARLINK-5325,PAYLOAD,2024-05-06 13:45:50,14.98367313,0.0002284,69.9992,279.0543,268.079,92.0108,0.00042426,4.978e-05,0.0,0 STARLINK-5325,1 55292U 23010Z   24127.57350002  .00004978  00000-0  42426-3 0  9996,2 55292  69.9992 279.0543 0002284 268.0790  92.0108 14.98367313 72595,6950.078,96.105,573.53,570.355,0.0
55292.0,STARLINK-5325,PAYLOAD,2024-05-06 20:10:25,14.98326207,0.0002932,69.9989,278.3823,275.8597,84.2228,-5.8712e-05,-7.93e-06,0.0,0 STARLINK-5325,1 55292U 23010Z   24127.84057208 -.00000793  00000-0 -58712-4 0  9997,2 55292  69.9989 278.3823 0002932 275.8597  84.2228 14.98326207 72329,6950.205,96.107,574.107,570.032,0.0
55292.0,STARLINK-5325,PAYLOAD,2024-05-07 13:47:54,14.98319893,0.0003004,69.9993,276.5306,266.2839,93.7976,-0.00010379,-1.331e-05,0.0,0 STARLINK-5325,1 55292U 23010Z   24128.57493829 -.00001331  00000-0 -10379-3 0  9996,2 55292  69.9993 276.5306 0003004 266.2839  93.7976 14.98319893 72748,6950.224,96.108,574.177,570.001,0.0
55292.0,STARLINK-5325,PAYLOAD,2024-05-07 20:12:26,14.98324656,0.0003103,69.9994,275.8582,269.1514,90.9289,-7.5835e-05,-9.98e-06,0.0,0 STARLINK-5325,1 55292U 23010Z   24128.84197534 -.00000998  00000-0 -75835-4 0  9997,2 55292  69.9994 275.8582 0003103 269.1514  90.9289 14.98324656 72478,6950.209,96.107,574.231,569.918,0.0
55292.0,STARLINK-5325,PAYLOAD,2024-05-08 12:13:47,14.98339705,0.0002614,69.9996,274.1747,272.1136,87.9723,-0.00031752,-3.88e-05,0.0,0 STARLINK-5325,1 55292U 23010Z   24129.50957513 -.00003880  00000-0 -31752-3 0  9994,2 55292  69.9996 274.1747 0002614 272.1136  87.9723 14.98339705 72576,6950.163,96.106,573.845,570.211,0.0
55292.0,STARLINK-5325,PAYLOAD,2024-05-08 13:49:55,14.98340254,0.0002606,69.9997,274.0063,272.5507,87.5353,-0.00032506,-3.97e-05,0.0,0 STARLINK-5325,1 55292U 23010Z   24129.57633478 -.00003970  00000-0 -32506-3 0  9990,2 55292  69.9997 274.0063 0002606 272.5507  87.5353 14.98340254 72895,6950.161,96.106,573.837,570.215,0.0
55292.0,STARLINK-5325,PAYLOAD,2024-05-08 18:38:19,14.98346989,0.0002943,69.9997,273.5015,269.6518,90.4304,-0.00034241,-4.178e-05,0.0,0 STARLINK-5325,1 55292U 23010Z   24129.77660900 -.00004178  00000-0 -34241-3 0  9991,2 55292  69.9997 273.5015 0002943 269.6518  90.4304 14.98346989 72923,6950.14,96.106,574.051,569.96,0.0
55292.0,STARLINK-5325,PAYLOAD,2024-05-09 02:38:57,14.98350994,0.0003406,69.9967,272.6584,274.8404,85.2366,0.0001153,1.284e-05,0.0,0 STARLINK-5325,1 55292U 23010Z   24130.11038985  .00001284  00000-0  11530-3 0  9992,2 55292  69.9967 272.6584 0003406 274.8404  85.2366 14.98350994 72660,6950.128,96.106,574.36,569.626,0.0
55292.0,STARLINK-5325,PAYLOAD,2024-05-09 12:15:46,14.98341286,0.0003788,69.9967,271.6482,275.7615,84.3112,0.00027399,3.179e-05,0.0,0 STARLINK-5325,1 55292U 23010Z   24130.51095022  .00003179  00000-0  27399-3 0  9996,2 55292  69.9967 271.6482 0003788 275.7615  84.3112 14.98341286 72723,6950.158,96.106,574.656,569.39,0.0
55292.0,STARLINK-5325,PAYLOAD,2024-05-09 13:51:54,14.98335964,0.0003711,69.9986,271.4803,270.5097,89.5636,0.00022509,2.594e-05,0.0,0 STARLINK-5325,1 55292U 23010Z   24130.57771459  .00002594  00000-0  22509-3 0  9995,2 55292  69.9986 271.4803 0003711 270.5097  89.5636 14.98335964 73042,6950.174,96.107,574.619,569.46,0.0
55292.0,STARLINK-5325,PAYLOAD,2024-05-09 18:40:20,14.98317346,0.0002985,70.0,270.9766,266.5546,93.5272,-5.78e-06,-1.62e-06,0.0,0 STARLINK-5325,1 55292U 23010Z   24130.77801423 -.00000162  00000-0 -57800-5 0  9997,2 55292  70.0000 270.9766 0002985 266.5546  93.5272 14.98317346 72763,6950.232,96.108,574.172,570.022,0.0
55292.0,STARLINK-5325,PAYLOAD,2024-05-10 13:53:57,14.98315773,0.0003174,69.9996,268.9574,268.6883,91.3912,-4.4008e-05,-6.18e-06,0.0,0 STARLINK-5325,1 55292U 23010Z   24131.57914163 -.00000618  00000-0 -44008-4 0  9993,2 55292  69.9996 268.9574 0003174 268.6883  91.3912 14.98315773 73193,6950.237,96.108,574.308,569.896,0.0
55292.0,STARLINK-5325,PAYLOAD,2024-05-10 20:18:28,14.98341258,0.0003412,69.9988,268.2811,269.9837,90.0931,0.00013769,1.551e-05,0.0,0 STARLINK-5325,1 55292U 23010Z   24131.84616093  .00001551  00000-0  13769-3 0  9998,2 55292  69.9988 268.2811 0003412 269.9837  90.0931 14.98341258 72923,6950.158,96.106,574.394,569.652,0.0
55292.0,STARLINK-5325,PAYLOAD,2024-05-11 13:55:52,14.98390112,0.0003012,69.9995,266.4314,266.5179,93.5636,0.00042995,5.049e-05,0.0,0 STARLINK-5325,1 55292U 23010Z   24132.58047303  .00005049  00000-0  42995-3 0  9991,2 55292  69.9995 266.4314 0003012 266.5179  93.5636 14.98390112 73033,6950.007,96.103,573.965,569.779,0.0
